SAUDISAT 2              
1 28371U 04025F   26179.56873367  .00000232  00000+0  62875-4 0  9990
2 28371  98.5509 179.8448 0023436 261.4269  98.4272 14.56689916167403
COSMOS 2407             
1 28380U 04028A   26179.62565617  .00000059  00000+0  44639-4 0  9991
2 28380  82.9602  66.3624 0038240 218.8936 205.8287 13.76335541101452
COSMOS 2414             
1 28521U 05002A   26179.56666946  .00000056  00000+0  34169-4 0  9995
2 28521  82.9490  35.0376 0038852 298.0100  61.7135 13.87927120 85390
INMARSAT 4-F1           
1 28628U 05009A   26179.62732872  .00000040  00000+0  00000+0 0  9994
2 28628   5.1829  42.7740 0002980  54.7119 223.1875  1.00272378 77780
SJ-7                    
1 28737U 05024A   26179.59881349  .00006904  00000+0  30728-3 0  9991
2 28737  97.7277 210.0098 0015084 359.1587   0.9620 15.21710109149765
CUBESAT XI-V            
1 28895U 05043F   26179.40982496  .00001417  00000+0  23033-3 0  9997
2 28895  98.2995 335.2678 0014416 165.2148 194.9483 14.72660646103401
HINODE (SOLAR-B)        
1 29479U 06041A   26179.56334532  .00000677  00000+0  12473-3 0  9997
2 29479  98.0544 195.5482 0016025 250.3841 109.5635 14.68637571 56541
SHIJIAN-6 02B (SJ-6 02B)
1 29506U 06046B   26179.60958330  .00001366  00000+0  11042-3 0  9993
2 29506  97.7157 208.5979 0015227  28.0925 332.1117 15.01404489 72455
DMSP 5D-3 F17 (USA 191) 
1 29522U 06050A   26179.62492076  .00000042  00000+0  43883-4 0  9997
2 29522  98.7379 185.9610 0010693  29.3936 330.7837 14.14994380 14049
LAPAN-TUBSAT            
1 29709U 07001A   26179.56710609  .00001124  00000+0  13514-3 0  9998
2 29709  98.1341 179.0477 0012892 142.9555 217.2552 14.85963811 52842
HAIYANG-1B              
1 31113U 07010A   26179.54179168  .00000084  00000+0  47620-4 0  9997
2 31113  98.3499 160.9468 0013785 162.5050 197.6612 14.31029580  2265
COSMO-SKYMED 2          
1 32376U 07059A   26179.63783286  .00000391  00000+0  55696-4 0  9997
2 32376  97.8887   3.0697 0001330  89.6146 270.5220 14.82154241  3706
CARTOSAT-2A             
1 32783U 08021A   26179.61352747  .00000686  00000+0  98974-4 0  9994
2 32783  97.7632 227.9320 0013323  75.6750 284.5941 14.79254899980497
CUTE-1.7+APD II (CO-65) 
1 32785U 08021C   26179.58410836  .00004402  00000+0  27821-3 0  9998
2 32785  97.8271 161.2403 0008594   2.5543 357.5728 15.09555814986916
SEEDS II (CO-66)        
1 32791U 08021J   26179.49368697  .00016499  00000+0  51759-3 0  9998
2 32791  97.7514 177.9337 0000910 202.7139 157.4063 15.33128545989029
YUBILEINY (RS30)        
1 32953U 08025A   26179.60682442  .00000017  00000+0  49707-4 0  9992
2 32953  82.5042 348.3353 0018522 287.5516  72.3540 12.43179989821113
FENGYUN 3A              
1 32958U 08026A   26179.53614180  .00000055  00000+0  46655-4 0  9995
2 32958  98.6885 120.1572 0009884  94.4870 265.7435 14.19573373937017
HUANJING 1A (HJ-1A)     
1 33320U 08041A   26179.62892475  .00000672  00000+0  86575-4 0  9991
2 33320  97.6680 165.0245 0020541  99.5981 260.7556 14.84009946960107
HUANJING 1B (HJ-1B)     
1 33321U 08041B   26179.60321851  .00001382  00000+0  17299-3 0  9990
2 33321  97.6517 168.1373 0037096 143.7106 216.6636 14.83337725960104
SHIJIAN-6 03A (SJ-6 03A)
1 33408U 08053A   26179.65632260  .00005212  00000+0  26502-3 0  9996
2 33408  97.8404 213.3761 0010571 341.2829  18.8013 15.17271846964707
SHIJIAN-6 03B (SJ-6 03B)
1 33409U 08053B   26179.60720529  .00002206  00000+0  16227-3 0  9991
2 33409  97.8561 199.6870 0019496   6.2830 353.8636 15.04336122964465
