OBJECT_NAME,OBJECT_ID,EPOCH,MEAN_MOTION,ECCENTRICITY,INCLINATION,RA_OF_ASC_NODE,ARG_OF_PERICENTER,MEAN_ANOMALY,EPHEMERIS_TYPE,CLASSIFICATION_TYPE,NORAD_CAT_ID,ELEMENT_SET_NO,REV_AT_EPOCH,BSTAR,MEAN_MOTION_DOT,MEAN_MOTION_DDOT
SAUDISAT 2,2004-025F,2026-06-28T13:38:58.589088,14.56689916,.0023436,98.5509,179.8448,261.4269,98.4272,0,U,28371,999,16740,.62874586E-4,.232E-5,0
COSMOS 2407,2004-028A,2026-06-28T15:00:56.693088,13.76335541,.00382401,82.9602,66.3624,218.8936,205.8287,0,U,28380,999,10145,.44638898E-4,.59E-6,0
COSMOS 2414,2005-002A,2026-06-28T13:36:00.241344,13.87927120,.0038852,82.9490,35.0376,298.0100,61.7135,0,U,28521,999,8539,.34168905E-4,.56E-6,0
INMARSAT 4-F1,2005-009A,2026-06-28T15:03:21.201408,1.00272378,.00029808,5.1829,42.7740,54.7119,223.1875,0,U,28628,999,7778,0,.4E-6,0
SJ-7,2005-024A,2026-06-28T14:22:17.485536,15.21710109,.00150846,97.7277,210.0098,359.1587,0.9620,0,U,28737,999,14976,.30727898E-3,.6904E-4,0
CUBESAT XI-V,2005-043F,2026-06-28T09:50:08.876544,14.72660646,.00144162,98.2995,335.2678,165.2148,194.9483,0,U,28895,999,10340,.23032949E-3,.1417E-4,0
HINODE (SOLAR-B),2006-041A,2026-06-28T13:31:13.035648,14.68637571,.00160255,98.0544,195.5482,250.3841,109.5635,0,U,29479,999,5654,.12473237E-3,.677E-5,0
SHIJIAN-6 02B (SJ-6 02B),2006-046B,2026-06-28T14:37:47.997120,15.01404489,.00152274,97.7157,208.5979,28.0925,332.1117,0,U,29506,999,7245,.11042452E-3,.1366E-4,0
DMSP 5D-3 F17 (USA 191),2006-050A,2026-06-28T14:59:53.153664,14.14994380,.00106934,98.7379,185.9610,29.3936,330.7837,0,U,29522,999,1404,.43883338E-4,.42E-6,0
LAPAN-TUBSAT,2007-001A,2026-06-28T13:36:37.966176,14.85963811,.00128926,98.1341,179.0477,142.9555,217.2552,0,U,29709,999,5284,.13513768E-3,.1124E-4,0
HAIYANG-1B,2007-010A,2026-06-28T13:00:10.801152,14.31029580,.00137855,98.3499,160.9468,162.5050,197.6612,0,U,31113,999,226,.47619826E-4,.84E-6,0
COSMO-SKYMED 2,2007-059A,2026-06-28T15:18:28.759104,14.82154241,.00013301,97.8887,3.0697,89.6146,270.5220,0,U,32376,999,370,.55695566E-4,.391E-5,0
CARTOSAT-2A,2008-021A,2026-06-28T14:43:28.773408,14.79254899,.00133234,97.7632,227.9320,75.6750,284.5941,0,U,32783,999,98049,.98973852E-4,.686E-5,0
CUTE-1.7+APD II (CO-65),2008-021C,2026-06-28T14:01:06.962304,15.09555814,.00085947,97.8271,161.2403,2.5543,357.5728,0,U,32785,999,98691,.27820726E-3,.4402E-4,0
SEEDS II (CO-66),2008-021J,2026-06-28T11:50:54.554208,15.33128545,.00009102,97.7514,177.9337,202.7139,157.4063,0,U,32791,999,98902,.51759114E-3,.16499E-3,0
YUBILEINY (RS30),2008-025A,2026-06-28T14:33:49.629888,12.43179989,.00185228,82.5042,348.3353,287.5516,72.3540,0,U,32953,999,82111,.49707431E-4,.17E-6,0
FENGYUN 3A,2008-026A,2026-06-28T12:52:02.651520,14.19573373,.00098844,98.6885,120.1572,94.4870,265.7435,0,U,32958,999,93701,.46654642E-4,.55E-6,0
HUANJING 1A (HJ-1A),2008-041A,2026-06-28T15:05:39.098400,14.84009946,.00205415,97.6680,165.0245,99.5981,260.7556,0,U,33320,999,96010,.86575175E-4,.672E-5,0
HUANJING 1B (HJ-1B),2008-041B,2026-06-28T14:28:38.079264,14.83337725,.00370967,97.6517,168.1373,143.7106,216.6636,0,U,33321,999,96010,.17298932E-3,.1382E-4,0
SHIJIAN-6 03A (SJ-6 03A),2008-053A,2026-06-28T15:45:06.272640,15.17271846,.00105712,97.8404,213.3761,341.2829,18.8013,0,U,33408,999,96470,.26502038E-3,.5212E-4,0
SHIJIAN-6 03B (SJ-6 03B),2008-053B,2026-06-28T14:34:22.537056,15.04336122,.00194961,97.8561,199.6870,6.2830,353.8636,0,U,33409,999,96446,.16227036E-3,.2206E-4,0
